[{"OBJECT_NAME":"STARLINK-31499","OBJECT_ID":"2024-046S","EPOCH":"2026-03-09T11:59:40.796736","MEAN_MOTION":15.30186181,"ECCENTRICITY":0.00011893,"INCLINATION":53.1605,"RA_OF_ASC_NODE":155.9918,"ARG_OF_PERICENTER":93.034,"MEAN_ANOMALY":267.0797,"EPHEMERIS_TYPE":0,"CLASSIFICATION_TYPE":"U","NORAD_CAT_ID":59217,"ELEMENT_SET_NO":999,"REV_AT_EPOCH":11301,"BSTAR":1.310289e-6,"MEAN_MOTION_DOT":-3.2e-6,"MEAN_MOTION_DDOT":0},{"OBJECT_NAME":"CERISE","OBJECT_ID":"1995-033B","EPOCH":"2026-03-09T23:11:27.589056","MEAN_MOTION":15.32047731,"ECCENTRICITY":0.00057118,"INCLINATION":98.325,"RA_OF_ASC_NODE":273.5192,"ARG_OF_PERICENTER":211.8754,"MEAN_ANOMALY":148.214,"EPHEMERIS_TYPE":0,"CLASSIFICATION_TYPE":"U","NORAD_CAT_ID":23606,"ELEMENT_SET_NO":999,"REV_AT_EPOCH":66468,"BSTAR":0.00062940675,"MEAN_MOTION_DOT":0.00019422,"MEAN_MOTION_DDOT":0}]
